STARLINK-30545          
1 58000U 23153K   26068.37792304 -.00001046  00000+0 -29325-4 0  9991
2 58000  42.9998  68.3822 0001208 226.2346 133.8405 15.26741829134851
FLOCK 4G-6              
1 62660U 25009BD  26068.71061311  .00012261  00000+0  45910-3 0  9991
2 62660  97.3980 150.7943 0002380 348.2637  11.8546 15.27432125121307
